IRIDIUM 144             
1 43249U 18030A   25323.22735881  .00000336  00000+0  11292-3 0  9994
2 43249  86.3994  18.1739 0002120  98.3974 261.7462 14.34216131400049
IRIDIUM 149             
1 43250U 18030B   25323.23367638  .00000339  00000+0  11381-3 0  9990
2 43250  86.3995  18.1409 0002120  97.4083 262.7353 14.34224328400066
IRIDIUM 157             
1 43251U 18030C   25323.25272939  .00000194  00000+0  62252-4 0  9995
2 43251  86.4000  18.1816 0002403  94.6008 265.5463 14.34216720400045
IRIDIUM 140             
1 43252U 18030D   25323.20199061  .00000334  00000+0  11226-3 0  9995
2 43252  86.3996  18.2157 0002046  97.2523 262.8906 14.34215055400099
IRIDIUM 145             
1 43253U 18030E   25323.18930442  .00000306  00000+0  10226-3 0  9997
2 43253  86.3996  18.1937 0002036 106.3537 253.7883 14.34215938400027
IRIDIUM 146             
1 43254U 18030F   25323.24003453  .00000256  00000+0  84317-4 0  9995
2 43254  86.3995  18.1853 0002131 100.5439 259.5997 14.34215384400044
IRIDIUM 148             
1 43255U 18030G   25323.20833140  .00000347  00000+0  11693-3 0  9993
2 43255  86.3996  18.2384 0002297  96.1231 264.0226 14.34215916400079
IRIDIUM 142             
1 43256U 18030H   25323.24638817  .00000219  00000+0  71303-4 0  9995
2 43256  86.3995  18.1194 0002126 107.3473 252.7955 14.34216097400042
